[{"OBJECT_NAME":"GHGSAT-C4","OBJECT_ID":"2022-057Q","EPOCH":"2026-03-09T22:58:28.655904","MEAN_MOTION":15.3293316,"ECCENTRICITY":0.0007552,"INCLINATION":97.6357,"RA_OF_ASC_NODE":210.0193,"ARG_OF_PERICENTER":100.0033,"MEAN_ANOMALY":260.2061,"EPHEMERIS_TYPE":0,"CLASSIFICATION_TYPE":"U","NORAD_CAT_ID":52746,"ELEMENT_SET_NO":999,"REV_AT_EPOCH":21033,"BSTAR":0.00030289005,"MEAN_MOTION_DOT":9.562e-5,"MEAN_MOTION_DDOT":0},{"OBJECT_NAME":"STARLINK-35831","OBJECT_ID":"2025-254AC","EPOCH":"2026-03-09T18:09:17.534016","MEAN_MOTION":15.30197857,"ECCENTRICITY":8.5e-5,"INCLINATION":53.1586,"RA_OF_ASC_NODE":229.4159,"ARG_OF_PERICENTER":101.3463,"MEAN_ANOMALY":258.7633,"EPHEMERIS_TYPE":0,"CLASSIFICATION_TYPE":"U","NORAD_CAT_ID":66374,"ELEMENT_SET_NO":999,"REV_AT_EPOCH":1902,"BSTAR":0.00067359825,"MEAN_MOTION_DOT":0.00019642,"MEAN_MOTION_DDOT":0}]
